[{"OBJECT_NAME":"STARLINK-31523","OBJECT_ID":"2024-046V","EPOCH":"2026-03-09T12:31:35.372352","MEAN_MOTION":15.30187874,"ECCENTRICITY":0.0001268,"INCLINATION":53.1606,"RA_OF_ASC_NODE":156.1291,"ARG_OF_PERICENTER":69.7087,"MEAN_ANOMALY":290.405,"EPHEMERIS_TYPE":0,"CLASSIFICATION_TYPE":"U","NORAD_CAT_ID":59220,"ELEMENT_SET_NO":999,"REV_AT_EPOCH":11301,"BSTAR":5.4258412e-5,"MEAN_MOTION_DOT":1.248e-5,"MEAN_MOTION_DDOT":0},{"OBJECT_NAME":"OBJECT A","OBJECT_ID":"2025-013A","EPOCH":"2026-03-09T23:29:31.895232","MEAN_MOTION":15.29260221,"ECCENTRICITY":0.0010321,"INCLINATION":97.6364,"RA_OF_ASC_NODE":244.5149,"ARG_OF_PERICENTER":282.3775,"MEAN_ANOMALY":77.6309,"EPHEMERIS_TYPE":0,"CLASSIFICATION_TYPE":"U","NORAD_CAT_ID":62729,"ELEMENT_SET_NO":999,"REV_AT_EPOCH":6276,"BSTAR":0.0013206527,"MEAN_MOTION_DOT":0.00037616,"MEAN_MOTION_DDOT":0}]
